NORAD_CAT_ID,OBJECT_NAME,OBJECT_TYPE,EPOCH,MEAN_MOTION,ECCENTRICITY,INCLINATION,RA_OF_ASC_NODE,ARG_OF_PERICENTER,MEAN_ANOMALY,BSTAR,MEAN_MOTION_DOT,MEAN_MOTION_DDOT,TLE_LINE0,TLE_LINE1,TLE_LINE2,SEMIMAJOR_AXIS,PERIOD,APOGEE,PERIGEE,DECAYED
51755.0,STARLINK-3460,PAYLOAD,2022-09-05 22:00:00,15.08818532,0.0001625,53.2167,298.7399,43.7645,180.289,-0.0015183,-0.00024356,0.0,0 STARLINK-3460,1 51755U 22016AT  22248.91667824 -.00024356  00000-0 -15183-2 0  9997,2 51755  53.2167 298.7399 0001625  43.7645 180.2890 15.08818532  1302,6917.946,95.439,540.935,538.687,0.0
51755.0,STARLINK-3460,PAYLOAD,2022-09-06 06:00:00,15.08819522,0.0001659,53.2168,297.2441,45.1862,190.4203,-0.00076235,-0.00012394,0.0,0 STARLINK-3460,1 51755U 22016AT  22249.25001157 -.00012394  00000-0 -76235-3 0  9991,2 51755  53.2168 297.2441 0001659  45.1862 190.4203 15.08819522 31516,6917.943,95.439,540.956,538.66,0.0
51755.0,STARLINK-3460,PAYLOAD,2022-09-06 14:00:01,15.08790772,0.0001841,53.2168,295.7492,39.3201,207.8561,0.003505,0.00055861,0.0,0 STARLINK-3460,1 51755U 22016AT  22249.58334491  .00055861  00000-0  35050-2 0  9990,2 51755  53.2168 295.7492 0001841  39.3201 207.8561 15.08790772  1309,6918.031,95.441,541.169,538.622,0.0
51755.0,STARLINK-3460,PAYLOAD,2022-09-06 22:00:00,15.08807964,0.0001675999999999,53.2169,294.2512,43.1129,215.6257,0.0015753,0.0002484999999999,0.0,0 STARLINK-3460,1 51755U 22016AT  22249.91667824  .00024850  00000-0  15753-2 0  9998,2 51755  53.2169 294.2512 0001676  43.1129 215.6257 15.08807964  1306,6917.978,95.44,541.003,538.684,0.0
51755.0,STARLINK-3460,PAYLOAD,2022-09-07 06:00:00,15.08841293,0.0001739,53.217,292.7554,44.7303,225.57,-0.0010979,-0.00017719,0.0,0 STARLINK-3460,1 51755U 22016AT  22250.25001157 -.00017719  00000-0 -10979-2 0  9991,2 51755  53.2170 292.7554 0001739  44.7303 225.5700 15.08841293 31666,6917.876,95.437,540.944,538.538,0.0
51755.0,STARLINK-3460,PAYLOAD,2022-09-07 14:00:01,15.08812234,0.0001899,53.2167,291.2603,39.4795,242.4127,0.00301,0.00047906,0.0,0 STARLINK-3460,1 51755U 22016AT  22250.58334491  .00047906  00000-0  30100-2 0  9994,2 51755  53.2167 291.2603 0001899  39.4795 242.4127 15.08812234  1306,6917.965,95.439,541.144,538.5169999999998,0.0
51755.0,STARLINK-3460,PAYLOAD,2022-09-07 22:00:00,15.08822409,0.0001723,53.2168,289.7622,44.0309,249.451,0.0020211,0.00032009,0.0,0 STARLINK-3460,1 51755U 22016AT  22250.91667824  .00032009  00000-0  20211-2 0  9990,2 51755  53.2168 289.7622 0001723  44.0309 249.4510 15.08822409  1307,6917.934,95.439,540.991,538.607,0.0
51755.0,STARLINK-3460,PAYLOAD,2022-09-08 06:00:00,15.08861363,0.0001786999999999,53.2168,288.2665,44.633,260.4335,-0.0012804,-0.0002061999999999,0.0,0 STARLINK-3460,1 51755U 22016AT  22251.25001157 -.00020620  00000-0 -12804-2 0  9996,2 51755  53.2168 288.2665 0001787  44.6330 260.4335 15.08861363 31817,6917.815,95.436,540.9159999999998,538.444,0.0
51755.0,STARLINK-3460,PAYLOAD,2022-09-08 14:00:01,15.08843109,0.0001892,53.2163,286.7712,38.9974,277.6805,0.00096283,0.0001506999999999,0.0,0 STARLINK-3460,1 51755U 22016AT  22251.58334491  .00015070  00000-0  96283-3 0  9997,2 51755  53.2163 286.7712 0001892  38.9974 277.6805 15.08843109  1306,6917.871,95.437,541.045,538.427,0.0
51755.0,STARLINK-3460,PAYLOAD,2022-09-09 00:00:02,15.0881008,0.0001624,53.2163,284.8986,43.6139,17.6453,0.0031905,0.00050813,0.0,0 STARLINK-3460,1 51755U 22016AT  22252.00002315  .00050813  00000-0  31905-2 0  9995,2 51755  53.2163 284.8986 0001624  43.6139  17.6453 15.08810080  1300,6917.972,95.439,540.96,538.7130000000002,0.0
51755.0,STARLINK-3460,PAYLOAD,2022-09-09 06:00:00,15.08853777,0.0001729,53.2163,283.7775,42.3638,297.5112,-0.0014545,-0.00023371,0.0,0 STARLINK-3460,1 51755U 22016AT  22252.25001157 -.00023371  00000-0 -14545-2 0  9997,2 51755  53.2163 283.7775 0001729  42.3638 297.5112 15.08853777 31966,6917.8380000000025,95.437,540.899,538.507,0.0
51755.0,STARLINK-3460,PAYLOAD,2022-09-09 14:00:01,15.08831574,0.0001857,53.2157,282.2819,37.8879,313.5899,0.0020541,0.00032547,0.0,0 STARLINK-3460,1 51755U 22016AT  22252.58334491  .00032547  00000-0  20541-2 0  9999,2 51755  53.2157 282.2819 0001857  37.8879 313.5899 15.08831574  1307,6917.906,95.438,541.056,538.486,0.0
51755.0,STARLINK-3460,PAYLOAD,2022-09-09 22:00:00,15.08832897,0.0001673,53.2157,280.7837,44.6102,318.4742,0.0017498,0.00027664,0.0,0 STARLINK-3460,1 51755U 22016AT  22252.91667824  .00027664  00000-0  17498-2 0  9996,2 51755  53.2157 280.7837 0001673  44.6102 318.4742 15.08832897  1301,6917.901999999999,95.438,540.924,538.61,0.0
51755.0,STARLINK-3460,PAYLOAD,2022-09-10 14:00:01,15.08822296,0.0001955999999999,53.215,277.7924,41.9788,344.2926,0.0014831,0.00023383,0.0,0 STARLINK-3460,1 51755U 22016AT  22253.58334491  .00023383  00000-0  14831-2 0  9993,2 51755  53.2150 277.7924 0001956  41.9788 344.2926 15.08822296  1304,6917.935,95.439,541.153,538.446,0.0
51755.0,STARLINK-3460,PAYLOAD,2022-09-10 22:00:00,15.0881265,0.0001774999999999,53.215,276.2942,48.51,349.356,0.0030583999999999,0.00048687,0.0,0 STARLINK-3460,1 51755U 22016AT  22253.91667824  .00048687  00000-0  30584-2 0  9996,2 51755  53.2150 276.2942 0001775  48.5100 349.3560 15.08812650  1301,6917.964,95.439,541.057,538.601,0.0
51755.0,STARLINK-3460,PAYLOAD,2022-09-11 14:00:01,15.08853863,0.0001983,53.2146,273.3029,42.3285,18.7215,-0.0006178,-0.00010111,0.0,0 STARLINK-3460,1 51755U 22016AT  22254.58334491 -.00010111  00000-0 -61780-3 0  9997,2 51755  53.2146 273.3029 0001983  42.3285  18.7215 15.08853863  1302,6917.8380000000025,95.437,541.075,538.331,0.0
51755.0,STARLINK-3460,PAYLOAD,2022-09-11 22:00:00,15.08808789,0.0001764,53.2147,271.8046,47.2484,25.4177,0.0024869,0.00039479,0.0,0 STARLINK-3460,1 51755U 22016AT  22254.91667824  .00039479  00000-0  24869-2 0  9995,2 51755  53.2147 271.8046 0001764  47.2484  25.4177 15.08808789  1306,6917.976,95.44,541.061,538.62,0.0
51755.0,STARLINK-3460,PAYLOAD,2022-09-12 14:00:01,15.08838802,0.0002012,53.2146,268.8131,41.9922,53.8377,0.00085796,0.00013392,0.0,0 STARLINK-3460,1 51755U 22016AT  22255.58334491  .00013392  00000-0  85796-3 0  9993,2 51755  53.2146 268.8131 0002012  41.9922  53.8377 15.08838802  1307,6917.884,95.438,541.141,538.357,0.0
51755.0,STARLINK-3460,PAYLOAD,2022-09-12 22:00:00,15.08831479,0.0001841,53.2149,267.3149,47.1025,60.3337,0.0021390999999999,0.00033912,0.0,0 STARLINK-3460,1 51755U 22016AT  22255.91667824  .00033912  00000-0  21391-2 0  9999,2 51755  53.2149 267.3149 0001841  47.1025  60.3337 15.08831479 32524,6917.906,95.438,541.045,538.498,0.0
51755.0,STARLINK-3460,PAYLOAD,2022-09-13 08:00:01,15.0884052,0.0002026999999999,53.2162,265.4391,42.484,169.4472,-0.0059964,-0.00094476,0.0,0 STARLINK-3460,1 51755U 22016AT  22256.33334491 -.00094476  00000-0 -59964-2 0  9998,2 51755  53.2162 265.4391 0002027  42.4840 169.4472 15.08840520 32581,6917.879,95.438,541.146,538.342,0.0
51755.0,STARLINK-3460,PAYLOAD,2022-09-13 14:00:01,15.08754422,0.000213,53.2164,264.3136,39.9531,90.6569,0.0080066999999999,0.00129182,0.0,0 STARLINK-3460,1 51755U 22016AT  22256.58334491  .00129182  00000-0  80067-2 0  9994,2 51755  53.2164 264.3136 0002130  39.9531  90.6569 15.08754422  1304,6918.142,95.443,541.481,538.533,0.0
51755.0,STARLINK-3460,PAYLOAD,2022-09-13 18:00:00,15.08840165,0.0002095,53.2173,263.5623,40.8841,275.4796,-0.00039164,-6.516e-05,0.0,0 STARLINK-3460,1 51755U 22016AT  22256.75001157 -.00006516  00000-0 -39164-3 0  9993,2 51755  53.2173 263.5623 0002095  40.8841 275.4796 15.08840165 32647,6917.88,95.438,541.194,538.2959999999998,0.0
51755.0,STARLINK-3460,PAYLOAD,2022-09-13 22:00:00,15.08818908,0.0001873,53.2154,262.8253,46.3052,95.8926,0.0028863,0.00045921,0.0,0 STARLINK-3460,1 51755U 22016AT  22256.91667824  .00045921  00000-0  28863-2 0  9994,2 51755  53.2154 262.8253 0001873  46.3052  95.8926 15.08818908  1303,6917.945,95.439,541.106,538.514,0.0
51755.0,STARLINK-3460,PAYLOAD,2022-09-14 14:00:01,15.08843692,0.0002041999999999,53.2158,259.8339,40.589,124.7986,-0.0013577,-0.00021834,0.0,0 STARLINK-3460,1 51755U 22016AT  22257.58334491 -.00021834  00000-0 -13577-2 0  9994,2 51755  53.2158 259.8339 0002042  40.5890 124.7986 15.08843692  1309,6917.869000000002,95.437,541.1469999999998,538.321,0.0
51755.0,STARLINK-3460,PAYLOAD,2022-09-14 22:00:00,15.08814388,0.0001868,53.2161,258.336,45.5864,131.39600000000002,0.0027013,0.00042935,0.0,0 STARLINK-3460,1 51755U 22016AT  22257.91667824  .00042935  00000-0  27013-2 0  9993,2 51755  53.2161 258.3360 0001868  45.5864 131.3960 15.08814388  1308,6917.959,95.439,541.116,538.531,0.0
51755.0,STARLINK-3460,PAYLOAD,2022-09-15 06:00:00,15.08846017,0.0002038,53.2163,256.8411,43.3563,145.2112,-0.00057141,-9.372e-05,0.0,0 STARLINK-3460,1 51755U 22016AT  22258.25001157 -.00009372  00000-0 -57141-3 0  9998,2 51755  53.2163 256.8411 0002038  43.3563 145.2112 15.08846017 32875,6917.861999999999,95.437,541.137,538.317,0.0
51755.0,STARLINK-3460,PAYLOAD,2022-09-15 14:00:01,15.08870269,0.0002020999999999,53.2162,255.3446,41.1828,158.9773,-0.0034908,-0.00055464,0.0,0 STARLINK-3460,1 51755U 22016AT  22258.58334491 -.00055464  00000-0 -34908-2 0  9992,2 51755  53.2162 255.3446 0002021  41.1828 158.9773 15.08870269  1302,6917.788000000001,95.436,541.0509999999998,538.255,0.0
51755.0,STARLINK-3460,PAYLOAD,2022-09-15 16:00:00,15.08870163,0.0001947,53.2164,254.97,41.8353,251.2279,-0.0044339,-0.00070226,0.0,0 STARLINK-3460,1 51755U 22016AT  22258.66667824 -.00070226  00000-0 -44339-2 0  9992,2 51755  53.2164 254.9700 0001947  41.8353 251.2279 15.08870163  1309,6917.788000000001,95.436,541.0,538.306,0.0
51755.0,STARLINK-3460,PAYLOAD,2022-09-16 11:22:25,15.088375199999998,0.0001893,53.2169,251.3467,47.6187,312.4966,1.3639e-05,-7.1e-07,0.0,0 STARLINK-3460,1 51755U 22016AT  22259.47390108 -.00000071  00000-0  13639-4 0  9991,2 51755  53.2169 251.3467 0001893  47.6187 312.4966 15.08837520 33054,6917.888000000001,95.438,541.063,538.443,0.0
